SOYUZ-MS 28             
1 66664U 25275A   26013.40249039  .00009179  00000+0  17283-3 0  9991
2 66664  51.6332 345.7221 0007762  13.3130 346.8062 15.49273572547760
1998-067XS              
1 66906U 98067XS  26013.61294269  .00017719  00000+0  29159-3 0  9991
2 66906  51.6319 344.1293 0002228   8.8340 351.2689 15.52427531  6563
1998-067XT              
1 66907U 98067XT  26013.62913741  .00053401  00000+0  74841-3 0  9992
2 66907  51.6314 343.4878 0003691  54.3923 305.7412 15.56229316  6572
1998-067XU              
1 66908U 98067XU  26013.30710936  .00066277  00000+0  92787-3 0  9993
2 66908  51.6301 345.0854 0003610  49.5232 310.6074 15.56166729  6523
SILVERSAT               
1 66909U 98067XV  26013.29929043  .00073481  00000+0  10009-2 0  9994
2 66909  51.6313 345.0339 0003866  59.9935 300.1440 15.56861412  6525
1998-067XW              
1 66910U 98067XW  26013.30043185  .00067286  00000+0  93026-3 0  9999
2 66910  51.6294 345.0399 0002629  34.5838 325.5324 15.56501876  6525
1998-067XX              
1 66911U 98067XX  26013.60713538  .00068614  00000+0  90848-3 0  9994
2 66911  51.6293 343.3392 0002725  53.7358 306.3886 15.57654669  6560
1998-067XY              
1 66912U 98067XY  26013.38965302  .00049866  00000+0  73718-3 0  9993
2 66912  51.6311 344.8874 0003422  37.4074 322.7154 15.54808209  6526
